{"fetched_at":"2026-07-14T17:40:21.416Z","source":"https://celestrak.org/NORAD/elements/gp.php?GROUP=kuiper&FORMAT=JSON","constellation":"kuiper","records":[{"OBJECT_NAME":"KUIPER-00265","OBJECT_ID":"2025-301AC","EPOCH":"2026-07-13T08:15:43.230240","CLASSIFICATION_TYPE":"U","MEAN_MOTION":14.79930046,"ECCENTRICITY":0.00003993,"INCLINATION":51.9022,"RA_OF_ASC_NODE":249.9996,"ARG_OF_PERICENTER":107.9857,"MEAN_ANOMALY":252.1149,"EPHEMERIS_TYPE":0,"NORAD_CAT_ID":67159,"ELEMENT_SET_NO":999,"REV_AT_EPOCH":3209,"BSTAR":0.00010146901,"MEAN_MOTION_DOT":0.00000552,"MEAN_MOTION_DDOT":0},{"OBJECT_NAME":"KUIPER-00159","OBJECT_ID":"2026-030A","EPOCH":"2026-07-14T04:00:01.998720","CLASSIFICATION_TYPE":"U","MEAN_MOTION":15.26842535,"ECCENTRICITY":0.0005923,"INCLINATION":51.8889,"RA_OF_ASC_NODE":328.0214,"ARG_OF_PERICENTER":126.9388,"MEAN_ANOMALY":279.4535,"EPHEMERIS_TYPE":0,"NORAD_CAT_ID":67764,"ELEMENT_SET_NO":999,"REV_AT_EPOCH":528,"BSTAR":-0.010801,"MEAN_MOTION_DOT":-0.00278842,"MEAN_MOTION_DDOT":0},{"OBJECT_NAME":"KUIPER-00160","OBJECT_ID":"2026-030B","EPOCH":"2026-07-13T16:22:46.583040","CLASSIFICATION_TYPE":"U","MEAN_MOTION":15.37468088,"ECCENTRICITY":0.0005885,"INCLINATION":51.8816,"RA_OF_ASC_NODE":330.1042,"ARG_OF_PERICENTER":133.9647,"MEAN_ANOMALY":226.1827,"EPHEMERIS_TYPE":0,"NORAD_CAT_ID":67765,"ELEMENT_SET_NO":999,"REV_AT_EPOCH":2447,"BSTAR":0.00024051,"MEAN_MOTION_DOT":0.00008597,"MEAN_MOTION_DDOT":0},{"OBJECT_NAME":"KUIPER-00177","OBJECT_ID":"2026-030C","EPOCH":"2026-07-13T23:11:40.034112","CLASSIFICATION_TYPE":"U","MEAN_MOTION":14.79941629,"ECCENTRICITY":0.000067,"INCLINATION":51.902,"RA_OF_ASC_NODE":14.7284,"ARG_OF_PERICENTER":122.1405,"MEAN_ANOMALY":237.9623,"EPHEMERIS_TYPE":0,"NORAD_CAT_ID":67766,"ELEMENT_SET_NO":999,"REV_AT_EPOCH":2387,"BSTAR":0.00026304,"MEAN_MOTION_DOT":0.00001785,"MEAN_MOTION_DDOT":0},{"OBJECT_NAME":"KUIPER-00178","OBJECT_ID":"2026-030D","EPOCH":"2026-07-13T22:23:01.993344","CLASSIFICATION_TYPE":"U","MEAN_MOTION":14.79943524,"ECCENTRICITY":0.0000735,"INCLINATION":51.9016,"RA_OF_ASC_NODE":14.8598,"ARG_OF_PERICENTER":123.0629,"MEAN_ANOMALY":237.0404,"EPHEMERIS_TYPE":0,"NORAD_CAT_ID":67767,"ELEMENT_SET_NO":999,"REV_AT_EPOCH":2387,"BSTAR":0.00025651,"MEAN_MOTION_DOT":0.00001735,"MEAN_MOTION_DDOT":0},{"OBJECT_NAME":"KUIPER-00180","OBJECT_ID":"2026-030E","EPOCH":"2026-07-13T20:53:34.287072","CLASSIFICATION_TYPE":"U","MEAN_MOTION":14.79930954,"ECCENTRICITY":0.0000725,"INCLINATION":51.8999,"RA_OF_ASC_NODE":10.1372,"ARG_OF_PERICENTER":125.218,"MEAN_ANOMALY":234.885,"EPHEMERIS_TYPE":0,"NORAD_CAT_ID":67768,"ELEMENT_SET_NO":999,"REV_AT_EPOCH":2393,"BSTAR":0.000050098,"MEAN_MOTION_DOT":0.00000161,"MEAN_MOTION_DDOT":0},{"OBJECT_NAME":"KUIPER-00197","OBJECT_ID":"2026-030F","EPOCH":"2026-07-13T18:10:08.994720","CLASSIFICATION_TYPE":"U","MEAN_MOTION":14.79931163,"ECCENTRICITY":0.0000561,"INCLINATION":51.9007,"RA_OF_ASC_NODE":350.6509,"ARG_OF_PERICENTER":167.5978,"MEAN_ANOMALY":192.4998,"EPHEMERIS_TYPE":0,"NORAD_CAT_ID":67769,"ELEMENT_SET_NO":999,"REV_AT_EPOCH":2419,"BSTAR":0.0000086851,"MEAN_MOTION_DOT":-0.00000155,"MEAN_MOTION_DDOT":0},{"OBJECT_NAME":"KUIPER-00198","OBJECT_ID":"2026-030G","EPOCH":"2026-07-13T20:16:35.069376","CLASSIFICATION_TYPE":"U","MEAN_MOTION":14.7992631,"ECCENTRICITY":0.0000616,"INCLINATION":51.8999,"RA_OF_ASC_NODE":2.7469,"ARG_OF_PERICENTER":119.0081,"MEAN_ANOMALY":241.0943,"EPHEMERIS_TYPE":0,"NORAD_CAT_ID":67770,"ELEMENT_SET_NO":999,"REV_AT_EPOCH":2403,"BSTAR":0.00027016,"MEAN_MOTION_DOT":0.00001839,"MEAN_MOTION_DDOT":0},{"OBJECT_NAME":"KUIPER-00199","OBJECT_ID":"2026-030H","EPOCH":"2026-07-13T15:23:26.584224","CLASSIFICATION_TYPE":"U","MEAN_MOTION":15.37013898,"ECCENTRICITY":0.0010372,"INCLINATION":51.8826,"RA_OF_ASC_NODE":332.038,"ARG_OF_PERICENTER":146.7215,"MEAN_ANOMALY":213.4425,"EPHEMERIS_TYPE":0,"NORAD_CAT_ID":67771,"ELEMENT_SET_NO":999,"REV_AT_EPOCH":2444,"BSTAR":0.00045013,"MEAN_MOTION_DOT":0.00016222,"MEAN_MOTION_DDOT":0},{"OBJECT_NAME":"KUIPER-00200","OBJECT_ID":"2026-030J","EPOCH":"2026-07-13T20:39:56.020320","CLASSIFICATION_TYPE":"U","MEAN_MOTION":14.79871899,"ECCENTRICITY":0.0001345,"INCLINATION":51.9,"RA_OF_ASC_NODE":347.7197,"ARG_OF_PERICENTER":78.3209,"MEAN_ANOMALY":281.7905,"EPHEMERIS_TYPE":0,"NORAD_CAT_ID":67772,"ELEMENT_SET_NO":999,"REV_AT_EPOCH":2424,"BSTAR":0.0002777,"MEAN_MOTION_DOT":0.00001893,"MEAN_MOTION_DDOT":0},{"OBJECT_NAME":"KUIPER-00203","OBJECT_ID":"2026-030K","EPOCH":"2026-07-13T21:26:40.039008","CLASSIFICATION_TYPE":"U","MEAN_MOTION":14.79930852,"ECCENTRICITY":0.0000814,"INCLINATION":51.9077,"RA_OF_ASC_NODE":20.0953,"ARG_OF_PERICENTER":138.929,"MEAN_ANOMALY":221.1733,"EPHEMERIS_TYPE":0,"NORAD_CAT_ID":67773,"ELEMENT_SET_NO":999,"REV_AT_EPOCH":2379,"BSTAR":0.00027254,"MEAN_MOTION_DOT":0.00001857,"MEAN_MOTION_DDOT":0},{"OBJECT_NAME":"KUIPER-00205","OBJECT_ID":"2026-030L","EPOCH":"2026-07-13T17:29:08.072160","CLASSIFICATION_TYPE":"U","MEAN_MOTION":14.79948172,"ECCENTRICITY":0.0001034,"INCLINATION":51.9022,"RA_OF_ASC_NODE":345.7558,"ARG_OF_PERICENTER":113.6072,"MEAN_ANOMALY":246.4999,"EPHEMERIS_TYPE":0,"NORAD_CAT_ID":67774,"ELEMENT_SET_NO":999,"REV_AT_EPOCH":2426,"BSTAR":-0.00035195,"MEAN_MOTION_DOT":-0.00002904,"MEAN_MOTION_DDOT":0},{"OBJECT_NAME":"KUIPER-00208","OBJECT_ID":"2026-030M","EPOCH":"2026-07-13T19:03:18.501696","CLASSIFICATION_TYPE":"U","MEAN_MOTION":14.76517128,"ECCENTRICITY":0.0008205,"INCLINATION":51.8987,"RA_OF_ASC_NODE":12.9122,"ARG_OF_PERICENTER":118.7862,"MEAN_ANOMALY":241.3924,"EPHEMERIS_TYPE":0,"NORAD_CAT_ID":67775,"ELEMENT_SET_NO":999,"REV_AT_EPOCH":2388,"BSTAR":0.00020457,"MEAN_MOTION_DOT":0.00001223,"MEAN_MOTION_DDOT":0},{"OBJECT_NAME":"KUIPER-00209","OBJECT_ID":"2026-030N","EPOCH":"2026-07-13T16:50:28.457664","CLASSIFICATION_TYPE":"U","MEAN_MOTION":14.79931842,"ECCENTRICITY":0.0000687,"INCLINATION":51.9022,"RA_OF_ASC_NODE":10.9764,"ARG_OF_PERICENTER":111.7913,"MEAN_ANOMALY":248.3122,"EPHEMERIS_TYPE":0,"NORAD_CAT_ID":67776,"ELEMENT_SET_NO":999,"REV_AT_EPOCH":2390,"BSTAR":0.000084304,"MEAN_MOTION_DOT":0.00000422,"MEAN_MOTION_DDOT":0},{"OBJECT_NAME":"KUIPER-00213","OBJECT_ID":"2026-030P","EPOCH":"2026-07-14T01:49:11.320608","CLASSIFICATION_TYPE":"U","MEAN_MOTION":14.79932841,"ECCENTRICITY":0.0000645,"INCLINATION":51.8982,"RA_OF_ASC_NODE":6.8022,"ARG_OF_PERICENTER":121.5052,"MEAN_ANOMALY":238.5973,"EPHEMERIS_TYPE":0,"NORAD_CAT_ID":67777,"ELEMENT_SET_NO":999,"REV_AT_EPOCH":2399,"BSTAR":0.00023706,"MEAN_MOTION_DOT":0.00001587,"MEAN_MOTION_DDOT":0},{"OBJECT_NAME":"KUIPER-00214","OBJECT_ID":"2026-030Q","EPOCH":"2026-07-13T16:58:14.799072","CLASSIFICATION_TYPE":"U","MEAN_MOTION":14.79941029,"ECCENTRICITY":0.0000506,"INCLINATION":51.9006,"RA_OF_ASC_NODE":5.9423,"ARG_OF_PERICENTER":114.7802,"MEAN_ANOMALY":245.3213,"EPHEMERIS_TYPE":0,"NORAD_CAT_ID":67778,"ELEMENT_SET_NO":999,"REV_AT_EPOCH":2397,"BSTAR":0.00027746,"MEAN_MOTION_DOT":0.00001895,"MEAN_MOTION_DDOT":0}]}
