KUIPER-00265            
1 67159U 25301AC  26194.34425035  .00000552  00000+0  10147-3 0  9994
2 67159  51.9022 249.9996 0000399 107.9857 252.1149 14.79930046 32096
KUIPER-00159            
1 67764U 26030A   26195.16668980 -.00278842  00000+0 -10801-1 0  9991
2 67764  51.8889 328.0214 0005923 126.9388 279.4535 15.26842535  5288
KUIPER-00160            
1 67765U 26030B   26194.68248360  .00008597  00000+0  24051-3 0  9994
2 67765  51.8816 330.1042 0005885 133.9647 226.1827 15.37468088 24479
KUIPER-00177            
1 67766U 26030C   26194.96643558  .00001785  00000+0  26304-3 0  9999
2 67766  51.9020  14.7284 0000670 122.1405 237.9623 14.79941629 23879
KUIPER-00178            
1 67767U 26030D   26194.93266196  .00001735  00000+0  25651-3 0  9995
2 67767  51.9016  14.8598 0000735 123.0629 237.0404 14.79943524 23878
KUIPER-00180            
1 67768U 26030E   26194.87053573  .00000161  00000+0  50098-4 0  9998
2 67768  51.8999  10.1372 0000725 125.2180 234.8850 14.79930954 23932
KUIPER-00197            
1 67769U 26030F   26194.75704855 -.00000155  00000+0  86851-5 0  9993
2 67769  51.9007 350.6509 0000561 167.5978 192.4998 14.79931163 24194
KUIPER-00198            
1 67770U 26030G   26194.84485034  .00001839  00000+0  27016-3 0  9995
2 67770  51.8999   2.7469 0000616 119.0081 241.0943 14.79926310 24035
KUIPER-00199            
1 67771U 26030H   26194.64127991  .00016222  00000+0  45013-3 0  9998
2 67771  51.8826 332.0380 0010372 146.7215 213.4425 15.37013898 24448
KUIPER-00200            
1 67772U 26030J   26194.86106505  .00001893  00000+0  27770-3 0  9999
2 67772  51.9000 347.7197 0001345  78.3209 281.7905 14.79871899 24243
KUIPER-00203            
1 67773U 26030K   26194.89351897  .00001857  00000+0  27254-3 0  9996
2 67773  51.9077  20.0953 0000814 138.9290 221.1733 14.79930852 23793
KUIPER-00205            
1 67774U 26030L   26194.72856565 -.00002904  00000+0 -35195-3 0  9990
2 67774  51.9022 345.7558 0001034 113.6072 246.4999 14.79948172 24266
KUIPER-00208            
1 67775U 26030M   26194.79396414  .00001223  00000+0  20457-3 0  9996
2 67775  51.8987  12.9122 0008205 118.7862 241.3924 14.76517128 23885
KUIPER-00209            
1 67776U 26030N   26194.70171826  .00000422  00000+0  84304-4 0  9998
2 67776  51.9022  10.9764 0000687 111.7913 248.3122 14.79931842 23909
KUIPER-00213            
1 67777U 26030P   26195.07582547  .00001587  00000+0  23706-3 0  9997
2 67777  51.8982   6.8022 0000645 121.5052 238.5973 14.79932841 23996
KUIPER-00214            
1 67778U 26030Q   26194.70711573  .00001895  00000+0  27746-3 0  9990
2 67778  51.9006   5.9423 0000506 114.7802 245.3213 14.79941029 23972
